NOAA 15                 
1 25338U 98030A   23059.56229845  .00000325  00000+0  15370-3 0  9999
2 25338  98.6196  90.4121 0009258 270.2650  89.7469 14.26253345289529
